[{"OBJECT_NAME":"ONEWEB-0657","OBJECT_ID":"2023-029Y","EPOCH":"2026-03-03T03:45:58.282848","MEAN_MOTION":13.19725263,"ECCENTRICITY":0.0002304,"INCLINATION":87.9237,"RA_OF_ASC_NODE":326.0986,"ARG_OF_PERICENTER":68.3591,"MEAN_ANOMALY":291.7787,"EPHEMERIS_TYPE":0,"CLASSIFICATION_TYPE":"U","NORAD_CAT_ID":55818,"ELEMENT_SET_NO":999,"REV_AT_EPOCH":14492,"BSTAR":0.00025091,"MEAN_MOTION_DOT":1.13e-6,"MEAN_MOTION_DDOT":0},{"OBJECT_NAME":"ONEWEB-0658","OBJECT_ID":"2023-029Z","EPOCH":"2026-03-03T03:39:08.687232","MEAN_MOTION":13.19725437,"ECCENTRICITY":0.0001925,"INCLINATION":87.9246,"RA_OF_ASC_NODE":326.066,"ARG_OF_PERICENTER":91.5395,"MEAN_ANOMALY":268.5958,"EPHEMERIS_TYPE":0,"CLASSIFICATION_TYPE":"U","NORAD_CAT_ID":55819,"ELEMENT_SET_NO":999,"REV_AT_EPOCH":14493,"BSTAR":0.00022868,"MEAN_MOTION_DOT":1.04e-6,"MEAN_MOTION_DDOT":0},{"OBJECT_NAME":"ONEWEB-0660","OBJECT_ID":"2023-029AA","EPOCH":"2026-03-03T04:05:48.518880","MEAN_MOTION":13.14502743,"ECCENTRICITY":0.00014,"INCLINATION":87.9002,"RA_OF_ASC_NODE":310.8463,"ARG_OF_PERICENTER":89.2739,"MEAN_ANOMALY":270.8551,"EPHEMERIS_TYPE":0,"CLASSIFICATION_TYPE":"U","NORAD_CAT_ID":55820,"ELEMENT_SET_NO":999,"REV_AT_EPOCH":14547,"BSTAR":-0.00026089,"MEAN_MOTION_DOT":-8.4e-7,"MEAN_MOTION_DDOT":0},{"OBJECT_NAME":"ONEWEB-0661","OBJECT_ID":"2023-029AB","EPOCH":"2026-03-03T03:06:25.966944","MEAN_MOTION":13.14502429,"ECCENTRICITY":0.0001339,"INCLINATION":87.8989,"RA_OF_ASC_NODE":310.9116,"ARG_OF_PERICENTER":85.8407,"MEAN_ANOMALY":274.2876,"EPHEMERIS_TYPE":0,"CLASSIFICATION_TYPE":"U","NORAD_CAT_ID":55821,"ELEMENT_SET_NO":999,"REV_AT_EPOCH":14545,"BSTAR":0.00081851,"MEAN_MOTION_DOT":3.16e-6,"MEAN_MOTION_DDOT":0},{"OBJECT_NAME":"ONEWEB-0662","OBJECT_ID":"2023-029AC","EPOCH":"2026-03-03T03:56:40.255584","MEAN_MOTION":13.14502125,"ECCENTRICITY":0.000144,"INCLINATION":87.8992,"RA_OF_ASC_NODE":310.9118,"ARG_OF_PERICENTER":89.7492,"MEAN_ANOMALY":270.3803,"EPHEMERIS_TYPE":0,"CLASSIFICATION_TYPE":"U","NORAD_CAT_ID":55822,"ELEMENT_SET_NO":999,"REV_AT_EPOCH":14550,"BSTAR":-0.00016314,"MEAN_MOTION_DOT":-4.8e-7,"MEAN_MOTION_DDOT":0},{"OBJECT_NAME":"ONEWEB-0663","OBJECT_ID":"2023-029AD","EPOCH":"2026-03-03T02:38:57.321024","MEAN_MOTION":13.20861649,"ECCENTRICITY":0.0001558,"INCLINATION":87.9192,"RA_OF_ASC_NODE":295.6801,"ARG_OF_PERICENTER":100.0844,"MEAN_ANOMALY":260.0466,"EPHEMERIS_TYPE":0,"CLASSIFICATION_TYPE":"U","NORAD_CAT_ID":55823,"ELEMENT_SET_NO":999,"REV_AT_EPOCH":14714,"BSTAR":6.8672e-5,"MEAN_MOTION_DOT":4.1e-7,"MEAN_MOTION_DDOT":0},{"OBJECT_NAME":"ONEWEB-0664","OBJECT_ID":"2023-029AE","EPOCH":"2026-03-03T03:10:00.651072","MEAN_MOTION":13.20774766,"ECCENTRICITY":0.000109,"INCLINATION":87.9175,"RA_OF_ASC_NODE":295.6685,"ARG_OF_PERICENTER":81.8678,"MEAN_ANOMALY":278.2579,"EPHEMERIS_TYPE":0,"CLASSIFICATION_TYPE":"U","NORAD_CAT_ID":55824,"ELEMENT_SET_NO":999,"REV_AT_EPOCH":14714,"BSTAR":0.00029313,"MEAN_MOTION_DOT":1.32e-6,"MEAN_MOTION_DDOT":0},{"OBJECT_NAME":"ONEWEB-0665","OBJECT_ID":"2023-029AF","EPOCH":"2026-03-03T03:01:52.161024","MEAN_MOTION":13.14502257,"ECCENTRICITY":0.0001477,"INCLINATION":87.8991,"RA_OF_ASC_NODE":310.8922,"ARG_OF_PERICENTER":91.3863,"MEAN_ANOMALY":268.7436,"EPHEMERIS_TYPE":0,"CLASSIFICATION_TYPE":"U","NORAD_CAT_ID":55825,"ELEMENT_SET_NO":999,"REV_AT_EPOCH":14547,"BSTAR":0.00064934,"MEAN_MOTION_DOT":2.54e-6,"MEAN_MOTION_DDOT":0},{"OBJECT_NAME":"ONEWEB-0666","OBJECT_ID":"2023-029AG","EPOCH":"2026-03-03T03:00:55.518048","MEAN_MOTION":13.20772141,"ECCENTRICITY":0.0002156,"INCLINATION":87.9171,"RA_OF_ASC_NODE":295.66,"ARG_OF_PERICENTER":69.4832,"MEAN_ANOMALY":290.6533,"EPHEMERIS_TYPE":0,"CLASSIFICATION_TYPE":"U","NORAD_CAT_ID":55826,"ELEMENT_SET_NO":999,"REV_AT_EPOCH":14715,"BSTAR":0.0001772,"MEAN_MOTION_DOT":8.5e-7,"MEAN_MOTION_DDOT":0},{"OBJECT_NAME":"ONEWEB-0667","OBJECT_ID":"2023-029AH","EPOCH":"2026-03-03T02:51:50.166432","MEAN_MOTION":13.2077166,"ECCENTRICITY":0.0001468,"INCLINATION":87.9188,"RA_OF_ASC_NODE":295.6016,"ARG_OF_PERICENTER":90.2368,"MEAN_ANOMALY":269.8933,"EPHEMERIS_TYPE":0,"CLASSIFICATION_TYPE":"U","NORAD_CAT_ID":55827,"ELEMENT_SET_NO":999,"REV_AT_EPOCH":14714,"BSTAR":0.00015208,"MEAN_MOTION_DOT":7.5e-7,"MEAN_MOTION_DDOT":0},{"OBJECT_NAME":"ONEWEB-0669","OBJECT_ID":"2023-029AJ","EPOCH":"2026-03-03T02:45:00.968256","MEAN_MOTION":13.20771321,"ECCENTRICITY":0.0001404,"INCLINATION":87.9169,"RA_OF_ASC_NODE":295.6281,"ARG_OF_PERICENTER":60.6591,"MEAN_ANOMALY":299.4682,"EPHEMERIS_TYPE":0,"CLASSIFICATION_TYPE":"U","NORAD_CAT_ID":55828,"ELEMENT_SET_NO":999,"REV_AT_EPOCH":14714,"BSTAR":0.00018475,"MEAN_MOTION_DOT":8.8e-7,"MEAN_MOTION_DDOT":0},{"OBJECT_NAME":"ONEWEB-0670","OBJECT_ID":"2023-029AK","EPOCH":"2026-03-03T02:29:53.584224","MEAN_MOTION":13.14502379,"ECCENTRICITY":0.0001213,"INCLINATION":87.8991,"RA_OF_ASC_NODE":310.9157,"ARG_OF_PERICENTER":82.2952,"MEAN_ANOMALY":277.8315,"EPHEMERIS_TYPE":0,"CLASSIFICATION_TYPE":"U","NORAD_CAT_ID":55829,"ELEMENT_SET_NO":999,"REV_AT_EPOCH":14549,"BSTAR":-0.00037275,"MEAN_MOTION_DOT":-1.25e-6,"MEAN_MOTION_DDOT":0},{"OBJECT_NAME":"ONEWEB-0671","OBJECT_ID":"2023-029AL","EPOCH":"2026-03-03T03:32:19.046688","MEAN_MOTION":13.19725702,"ECCENTRICITY":0.000159,"INCLINATION":87.9237,"RA_OF_ASC_NODE":326.1013,"ARG_OF_PERICENTER":84.6293,"MEAN_ANOMALY":275.5021,"EPHEMERIS_TYPE":0,"CLASSIFICATION_TYPE":"U","NORAD_CAT_ID":55830,"ELEMENT_SET_NO":999,"REV_AT_EPOCH":14491,"BSTAR":0.00026738,"MEAN_MOTION_DOT":1.2e-6,"MEAN_MOTION_DDOT":0},{"OBJECT_NAME":"ONEWEB-0672","OBJECT_ID":"2023-029AM","EPOCH":"2026-03-03T02:38:11.708736","MEAN_MOTION":13.20772288,"ECCENTRICITY":0.0001716,"INCLINATION":87.9183,"RA_OF_ASC_NODE":295.6148,"ARG_OF_PERICENTER":74.4594,"MEAN_ANOMALY":285.6728,"EPHEMERIS_TYPE":0,"CLASSIFICATION_TYPE":"U","NORAD_CAT_ID":55831,"ELEMENT_SET_NO":999,"REV_AT_EPOCH":14714,"BSTAR":0.00011803,"MEAN_MOTION_DOT":6.1e-7,"MEAN_MOTION_DDOT":0},{"OBJECT_NAME":"ONEWEB-0673","OBJECT_ID":"2023-029AN","EPOCH":"2026-03-03T02:59:19.548384","MEAN_MOTION":13.1972695,"ECCENTRICITY":0.000159,"INCLINATION":87.9241,"RA_OF_ASC_NODE":326.0911,"ARG_OF_PERICENTER":79.4463,"MEAN_ANOMALY":280.6849,"EPHEMERIS_TYPE":0,"CLASSIFICATION_TYPE":"U","NORAD_CAT_ID":55832,"ELEMENT_SET_NO":999,"REV_AT_EPOCH":14491,"BSTAR":0.00012957,"MEAN_MOTION_DOT":6.5e-7,"MEAN_MOTION_DDOT":0},{"OBJECT_NAME":"ONEWEB-0674","OBJECT_ID":"2023-029AP","EPOCH":"2026-03-03T03:33:49.590432","MEAN_MOTION":13.14501629,"ECCENTRICITY":0.0001172,"INCLINATION":87.8993,"RA_OF_ASC_NODE":310.8841,"ARG_OF_PERICENTER":78.8361,"MEAN_ANOMALY":281.2901,"EPHEMERIS_TYPE":0,"CLASSIFICATION_TYPE":"U","NORAD_CAT_ID":55833,"ELEMENT_SET_NO":999,"REV_AT_EPOCH":14548,"BSTAR":0.00053116,"MEAN_MOTION_DOT":2.1e-6,"MEAN_MOTION_DDOT":0},{"OBJECT_NAME":"ONEWEB-0675","OBJECT_ID":"2023-029AQ","EPOCH":"2026-03-03T03:20:56.783904","MEAN_MOTION":13.19725912,"ECCENTRICITY":0.0001986,"INCLINATION":87.9231,"RA_OF_ASC_NODE":326.1047,"ARG_OF_PERICENTER":77.3499,"MEAN_ANOMALY":282.7856,"EPHEMERIS_TYPE":0,"CLASSIFICATION_TYPE":"U","NORAD_CAT_ID":55834,"ELEMENT_SET_NO":999,"REV_AT_EPOCH":14493,"BSTAR":0.0002033,"MEAN_MOTION_DOT":9.4e-7,"MEAN_MOTION_DDOT":0}]
