ONEWEB-0657             
1 55818U 23029Y   26062.15692457  .00000113  00000+0  25091-3 0  9992
2 55818  87.9237 326.0986 0002304  68.3591 291.7787 13.19725263144920
ONEWEB-0658             
1 55819U 23029Z   26062.15218388  .00000104  00000+0  22868-3 0  9999
2 55819  87.9246 326.0660 0001925  91.5395 268.5958 13.19725437144934
ONEWEB-0660             
1 55820U 23029AA  26062.17070045 -.00000084  00000+0 -26089-3 0  9997
2 55820  87.9002 310.8463 0001400  89.2739 270.8551 13.14502743145475
ONEWEB-0661             
1 55821U 23029AB  26062.12946721  .00000316  00000+0  81851-3 0  9990
2 55821  87.8989 310.9116 0001339  85.8407 274.2876 13.14502429145457
ONEWEB-0662             
1 55822U 23029AC  26062.16435481 -.00000048  00000+0 -16314-3 0  9997
2 55822  87.8992 310.9118 0001440  89.7492 270.3803 13.14502125145500
ONEWEB-0663             
1 55823U 23029AD  26062.11038566  .00000041  00000+0  68672-4 0  9992
2 55823  87.9192 295.6801 0001558 100.0844 260.0466 13.20861649147149
ONEWEB-0664             
1 55824U 23029AE  26062.13195198  .00000132  00000+0  29313-3 0  9999
2 55824  87.9175 295.6685 0001090  81.8678 278.2579 13.20774766147142
ONEWEB-0665             
1 55825U 23029AF  26062.12629816  .00000254  00000+0  64934-3 0  9991
2 55825  87.8991 310.8922 0001477  91.3863 268.7436 13.14502257145470
ONEWEB-0666             
1 55826U 23029AG  26062.12564257  .00000085  00000+0  17720-3 0  9992
2 55826  87.9171 295.6600 0002156  69.4832 290.6533 13.20772141147159
ONEWEB-0667             
1 55827U 23029AH  26062.11933063  .00000075  00000+0  15208-3 0  9995
2 55827  87.9188 295.6016 0001468  90.2368 269.8933 13.20771660147146
ONEWEB-0669             
1 55828U 23029AJ  26062.11459454  .00000088  00000+0  18475-3 0  9996
2 55828  87.9169 295.6281 0001404  60.6591 299.4682 13.20771321147143
ONEWEB-0670             
1 55829U 23029AK  26062.10409241 -.00000125  00000+0 -37275-3 0  9998
2 55829  87.8991 310.9157 0001213  82.2952 277.8315 13.14502379145495
ONEWEB-0671             
1 55830U 23029AL  26062.14744267  .00000120  00000+0  26738-3 0  9999
2 55830  87.9237 326.1013 0001590  84.6293 275.5021 13.19725702144910
ONEWEB-0672             
1 55831U 23029AM  26062.10985774  .00000061  00000+0  11803-3 0  9997
2 55831  87.9183 295.6148 0001716  74.4594 285.6728 13.20772288147148
ONEWEB-0673             
1 55832U 23029AN  26062.12453181  .00000065  00000+0  12957-3 0  9997
2 55832  87.9241 326.0911 0001590  79.4463 280.6849 13.19726950144915
ONEWEB-0674             
1 55833U 23029AP  26062.14849063  .00000210  00000+0  53116-3 0  9992
2 55833  87.8993 310.8841 0001172  78.8361 281.2901 13.14501629145486
ONEWEB-0675             
1 55834U 23029AQ  26062.13954611  .00000094  00000+0  20330-3 0  9990
2 55834  87.9231 326.1047 0001986  77.3499 282.7856 13.19725912144932
